QIANFAN-49              
1 62250U 24232P   25330.47196605  .00000177  00000+0  25526-3 0  9996
2 62250  89.0041  42.8751 0012879 236.0995 123.8932 13.50974090 65644
QIANFAN-50              
1 62251U 24232Q   25330.49664987  .00000195  00000+0  28334-3 0  9992
2 62251  89.0046  42.8799 0014496 238.1393 121.8347 13.50975626 65671
QIANFAN-51              
1 62252U 24232R   25330.48019907  .00000168  00000+0  24125-3 0  9992
2 62252  89.0040  42.8764 0011890 241.2649 118.7308 13.50973820 65667
QIANFAN-52              
1 62253U 24232S   25330.50900095  .00000182  00000+0  26362-3 0  9994
2 62253  89.0036  42.7477 0014089 233.5281 126.4573 13.50979352 65758
QIANFAN-53              
1 62254U 24232T   25330.48842120  .00000174  00000+0  25040-3 0  9999
2 62254  89.0044  42.8530 0012950 234.3046 125.6901 13.50974310 65713
QIANFAN-54              
1 62255U 24232U   25330.45554706  .00000174  00000+0  25092-3 0  9994
2 62255  89.0035  42.5363 0000205 237.1071 123.0061 13.50974507 97211
QIANFAN-55              
1 62785U 25016A   25330.48176595  .00000139  00000+0  19650-3 0  9996
2 62785  88.9768 104.8864 0018047  40.3136 319.9349 13.50982203 44991
QIANFAN-56              
1 62786U 25016B   25330.42400507  .00000043  00000+0  47578-4 0  9999
2 62786  88.9741 104.7333 0016761  43.1508 317.0953 13.50973187 45035
